NORAD_CAT_ID,OBJECT_NAME,OBJECT_TYPE,EPOCH,MEAN_MOTION,ECCENTRICITY,INCLINATION,RA_OF_ASC_NODE,ARG_OF_PERICENTER,MEAN_ANOMALY,BSTAR,MEAN_MOTION_DOT,MEAN_MOTION_DDOT,TLE_LINE0,TLE_LINE1,TLE_LINE2,SEMIMAJOR_AXIS,PERIOD,APOGEE,PERIGEE,DECAYED
53169.0,STARLINK-4117,PAYLOAD,2023-10-22 03:34:41,15.08838111,0.0001584,53.2177,92.8961,79.6817,280.4353,9.7674e-05,1.267e-05,0.0,0 STARLINK-4117,1 53169U 22083AP  23295.14909166  .00001267  00000-0  97674-4 0  9999,2 53169  53.2177  92.8961 0001584  79.6817 280.4353 15.08838111 70921,6917.886,95.438,540.847,538.655,0.0
53169.0,STARLINK-4117,PAYLOAD,2023-10-22 14:42:24,15.08823844,0.0001191,53.2158,90.8186,91.1702,268.9426,9.2422e-06,-1.41e-06,0.0,0 STARLINK-4117,1 53169U 22083AP  23295.61278714 -.00000141  00000-0  92422-5 0  9997,2 53169  53.2158  90.8186 0001191  91.1702 268.9426 15.08823844 70359,6917.93,95.439,540.619,538.971,0.0
53169.0,STARLINK-4117,PAYLOAD,2023-10-22 17:53:10,15.08828468,0.0001283,53.2167,90.222,80.9888,279.125,4.5542e-05,4.37e-06,0.0,0 STARLINK-4117,1 53169U 22083AP  23295.74526583  .00000437  00000-0  45542-4 0  9998,2 53169  53.2167  90.2220 0001283  80.9888 279.1250 15.08828468 71015,6917.916,95.438,540.668,538.893,0.0
53169.0,STARLINK-4117,PAYLOAD,2023-10-23 03:25:29,15.08836966,0.0001335,53.2159,88.438,81.7395,278.3749,-3.3607e-05,-8.23e-06,0.0,0 STARLINK-4117,1 53169U 22083AP  23296.14269903 -.00000823  00000-0 -33607-4 0  9993,2 53169  53.2159  88.4380 0001335  81.7395 278.3749 15.08836966 71074,6917.89,95.438,540.678,538.831,0.0
53169.0,STARLINK-4117,PAYLOAD,2023-10-24 03:16:15,15.08848961,0.0001152,53.2156,83.9784,81.0573,279.0549,-3.2996e-06,-3.4e-06,0.0,0 STARLINK-4117,1 53169U 22083AP  23297.13629436 -.00000340  00000-0 -32996-5 0  9999,2 53169  53.2156  83.9784 0001152  81.0573 279.0549 15.08848961 71228,6917.853,95.437,540.515,538.921,0.0
53169.0,STARLINK-4117,PAYLOAD,2023-10-24 09:37:49,15.08838912,0.0001329,53.2153,82.7896,78.0393,282.0748,0.00028476,4.247e-05,0.0,0 STARLINK-4117,1 53169U 22083AP  23297.40126205  .00004247  00000-0  28476-3 0  9999,2 53169  53.2153  82.7896 0001329  78.0393 282.0748 15.08838912 71262,6917.884,95.438,540.668,538.829,0.0
53169.0,STARLINK-4117,PAYLOAD,2023-10-25 14:14:45,15.08841422,0.0001657,53.2167,77.4369,77.838,282.2797,7.9584e-05,9.79e-06,0.0,0 STARLINK-4117,1 53169U 22083AP  23298.59358262  .00000979  00000-0  79584-4 0  9995,2 53169  53.2167  77.4369 0001657  77.8380 282.2797 15.08841422 71446,6917.876,95.437,540.887,538.595,0.0
53169.0,STARLINK-4117,PAYLOAD,2023-10-26 12:30:10,15.08813011,0.0001204,53.2179,73.2734,96.7109,263.402,0.00064391,9.967e-05,0.0,0 STARLINK-4117,1 53169U 22083AP  23299.52095098  .00009967  00000-0  64391-3 0  9999,2 53169  53.2179  73.2734 0001204  96.7109 263.4020 15.08813011 71584,6917.963,95.439,540.661,538.995,0.0
53169.0,STARLINK-4117,PAYLOAD,2023-10-26 14:05:32,15.08846431,0.0001511,53.2184,72.9775,77.9819,282.1343,9.215e-05,1.179e-05,0.0,0 STARLINK-4117,1 53169U 22083AP  23299.58717734  .00001179  00000-0  92150-4 0  9995,2 53169  53.2184  72.9775 0001511  77.9819 282.1343 15.08846431 70959,6917.861,95.437,540.771,538.68,0.0
53169.0,STARLINK-4117,PAYLOAD,2023-10-26 15:40:54,15.08857509,0.0001521,53.2184,72.6793,83.1648,276.9518,-5.9074e-06,-3.82e-06,0.0,0 STARLINK-4117,1 53169U 22083AP  23299.65341140 -.00000382  00000-0 -59074-5 0  9993,2 53169  53.2184  72.6793 0001521  83.1648 276.9518 15.08857509 71602,6917.827,95.436,540.744,538.64,0.0
53169.0,STARLINK-4117,PAYLOAD,2023-10-27 09:10:09,15.08842842,0.0001425,53.2189,69.4086,91.9145,268.201,0.00014358,1.998e-05,0.0,0 STARLINK-4117,1 53169U 22083AP  23300.38205593  .00001998  00000-0  14358-3 0  9993,2 53169  53.2189  69.4086 0001425  91.9145 268.2010 15.08842842 71715,6917.872,95.437,540.722,538.751,0.0
53169.0,STARLINK-4117,PAYLOAD,2023-10-27 18:42:28,15.08848932,0.0001508,53.2177,67.6229,93.8053,266.3111,0.00012914,1.768e-05,0.0,0 STARLINK-4117,1 53169U 22083AP  23300.77949212  .00001768  00000-0  12914-3 0  9990,2 53169  53.2177  67.6229 0001508  93.8053 266.3111 15.08848932 71135,6917.853,95.437,540.761,538.675,0.0
53169.0,STARLINK-4117,PAYLOAD,2023-10-28 01:04:01,15.08832735,0.0002031,53.2179,66.4336,94.2002,265.9222,-9.9117e-05,-1.865e-05,0.0,0 STARLINK-4117,1 53169U 22083AP  23301.04446155 -.00001865  00000-0 -99117-4 0  9990,2 53169  53.2179  66.4336 0002031  94.2002 265.9222 15.08832735 71811,6917.903,95.438,541.173,538.363,0.0
53169.0,STARLINK-4117,PAYLOAD,2023-10-28 13:47:06,15.08828275,0.0001663,53.2191,64.055,97.6843,262.4338,-0.00011724,-2.153e-05,0.0,0 STARLINK-4117,1 53169U 22083AP  23301.57438539 -.00002153  00000-0 -11724-3 0  9993,2 53169  53.2191  64.0550 0001663  97.6843 262.4338 15.08828275 71259,6917.916,95.438,540.932,538.631,0.0
53169.0,STARLINK-4117,PAYLOAD,2023-10-28 15:22:29,15.08831218,0.0001447,53.2188,63.7611,85.421,274.6948,-0.00010254,-1.919e-05,0.0,0 STARLINK-4117,1 53169U 22083AP  23301.64062463 -.00001919  00000-0 -10254-3 0  9996,2 53169  53.2188  63.7611 0001447  85.4210 274.6948 15.08831218 71266,6917.907,95.438,540.773,538.771,0.0
53169.0,STARLINK-4117,PAYLOAD,2023-10-29 00:54:48,15.08840211,0.0001572,53.2195,61.9767,88.4498,271.6675,-1.7178e-05,-5.61e-06,0.0,0 STARLINK-4117,1 53169U 22083AP  23302.03806094 -.00000561  00000-0 -17178-4 0  9991,2 53169  53.2195  61.9767 0001572  88.4498 271.6675 15.08840211 71960,6917.88,95.438,540.832,538.657,0.0
53169.0,STARLINK-4117,PAYLOAD,2023-10-29 12:02:29,15.08854204,0.0001352,53.217,59.8919,82.8465,277.2681,0.00031792,4.777e-05,0.0,0 STARLINK-4117,1 53169U 22083AP  23302.50173420  .00004777  00000-0  31792-3 0  9991,2 53169  53.2170  59.8919 0001352  82.8465 277.2681 15.08854204 72031,6917.837,95.437,540.637,538.767,0.0
53169.0,STARLINK-4117,PAYLOAD,2023-10-29 13:37:53,15.0885726,0.0001312,53.2171,59.5935,80.396,279.718,0.00048281,7.408e-05,0.0,0 STARLINK-4117,1 53169U 22083AP  23302.56797464  .00007408  00000-0  48281-3 0  9992,2 53169  53.2171  59.5935 0001312  80.3960 279.7180 15.08857260 71402,6917.828,95.436,540.6,538.785,0.0
53169.0,STARLINK-4117,PAYLOAD,2023-10-30 11:53:17,15.08826793,0.0001125,53.2173,55.432,90.4395,269.6726,-0.00041909,-6.949e-05,0.0,0 STARLINK-4117,1 53169U 22083AP  23303.49534159 -.00006949  00000-0 -41909-3 0  9996,2 53169  53.2173  55.4320 0001125  90.4395 269.6726 15.08826793 72180,6917.921,95.438,540.564,539.007,0.0
53169.0,STARLINK-4117,PAYLOAD,2023-10-31 00:36:22,15.0883821,0.0001339,53.2172,53.052,80.5992,279.5152,0.00032467,4.883e-05,0.0,0 STARLINK-4117,1 53169U 22083AP  23304.02526472  .00004883  00000-0  32467-3 0  9997,2 53169  53.2172  53.0520 0001339  80.5992 279.5152 15.08838210 72264,6917.886,95.438,540.677,538.825,0.0
53169.0,STARLINK-4117,PAYLOAD,2023-10-31 13:19:28,15.08834233,0.0001115,53.2173,50.6742,83.6047,276.5072,0.00034112,5.144e-05,0.0,0 STARLINK-4117,1 53169U 22083AP  23304.55518957  .00005144  00000-0  34112-3 0  9994,2 53169  53.2173  50.6742 0001115  83.6047 276.5072 15.08834233 72349,6917.898,95.438,540.534,538.992,0.0
53169.0,STARLINK-4117,PAYLOAD,2023-10-31 14:54:51,15.08844,0.0001233,53.2178,50.3761,84.1474,275.9659,0.0007072,0.00010986,0.0,0 STARLINK-4117,1 53169U 22083AP  23304.62142782  .00010986  00000-0  70720-3 0  9996,2 53169  53.2178  50.3761 0001233  84.1474 275.9659 15.08844000 72351,6917.868,95.437,540.586,538.88,0.0
53169.0,STARLINK-4117,PAYLOAD,2023-11-01 00:27:10,15.08842734,0.0001329,53.2192,48.5937,78.5924,281.5217,0.00051893,7.981e-05,0.0,0 STARLINK-4117,1 53169U 22083AP  23305.01886983  .00007981  00000-0  51893-3 0  9999,2 53169  53.2192  48.5937 0001329  78.5924 281.5217 15.08842734 72416,6917.872,95.437,540.656,538.818,0.0
53169.0,STARLINK-4117,PAYLOAD,2023-11-01 13:10:15,15.08852367,0.0001351,53.2175,46.2123,86.0251,274.0895,0.00057102,8.815e-05,0.0,0 STARLINK-4117,1 53169U 22083AP  23305.54878744  .00008815  00000-0  57102-3 0  9999,2 53169  53.2175  46.2123 0001351  86.0251 274.0895 15.08852367 71850,6917.843,95.437,540.642,538.773,0.0
53169.0,STARLINK-4117,PAYLOAD,2023-11-02 13:01:02,15.08852099,0.0001476,53.2176,41.7515,93.3175,266.7986,0.00045925,7.031e-05,0.0,0 STARLINK-4117,1 53169U 22083AP  23306.54238872  .00007031  00000-0  45925-3 0  9991,2 53169  53.2176  41.7515 0001476  93.3175 266.7986 15.08852099 72649,6917.843,95.437,540.729,538.687,0.0
53169.0,STARLINK-4117,PAYLOAD,2023-11-03 11:16:26,15.08840481,0.0001658,53.2179,37.5879,101.9667,258.1511,0.00012532,1.707e-05,0.0,0 STARLINK-4117,1 53169U 22083AP  23307.46975058  .00001707  00000-0  12532-3 0  9999,2 53169  53.2179  37.5879 0001658 101.9667 258.1511 15.08840481 72788,6917.879,95.438,540.891,538.597,0.0
53169.0,STARLINK-4117,PAYLOAD,2023-11-03 16:02:35,15.08847119,0.0001479,53.2173,36.6977,88.3683,271.7479,0.00031249,4.69e-05,0.0,0 STARLINK-4117,1 53169U 22083AP  23307.66846945  .00004690  00000-0  31249-3 0  9993,2 53169  53.2173  36.6977 0001479  88.3683 271.7479 15.08847119 72170,6917.859,95.437,540.747,538.7,0.0
53169.0,STARLINK-4117,PAYLOAD,2023-11-04 12:42:36,15.08850064,0.0001485,53.2172,32.8328,82.8523,277.2638,0.00044126,6.744e-05,0.0,0 STARLINK-4117,1 53169U 22083AP  23308.52959043  .00006744  00000-0  44126-3 0  9993,2 53169  53.2172  32.8328 0001485  82.8523 277.2638 15.08850064 72302,6917.85,95.437,540.742,538.687,0.0
53169.0,STARLINK-4117,PAYLOAD,2023-11-04 22:14:55,15.08847946,0.0001545,53.2184,31.0464,82.6497,277.4671,0.00038861,5.903e-05,0.0,0 STARLINK-4117,1 53169U 22083AP  23308.92703195  .00005903  00000-0  38861-3 0  9997,2 53169  53.2184  31.0464 0001545  82.6497 277.4671 15.08847946 72362,6917.856,95.437,540.79,538.652,0.0
53169.0,STARLINK-4117,PAYLOAD,2023-11-05 12:33:23,15.08860829,0.0001722,53.2195,28.3775,103.5727,256.5457,0.00043419,6.633e-05,0.0,0 STARLINK-4117,1 53169U 22083AP  23309.52318479  .00006633  00000-0  43419-3 0  9997,2 53169  53.2195  28.3775 0001722 103.5727 256.5457 15.08860829 72459,6917.817,95.436,540.873,538.49,0.0
